NORAD_CAT_ID,OBJECT_NAME,OBJECT_TYPE,EPOCH,MEAN_MOTION,ECCENTRICITY,INCLINATION,RA_OF_ASC_NODE,ARG_OF_PERICENTER,MEAN_ANOMALY,BSTAR,MEAN_MOTION_DOT,MEAN_MOTION_DDOT,TLE_LINE0,TLE_LINE1,TLE_LINE2,SEMIMAJOR_AXIS,PERIOD,APOGEE,PERIGEE,DECAYED
55942.0,STARLINK-5917,PAYLOAD,2024-01-24 12:52:50,14.98360425,0.0002728,70.0005,78.7385,255.2476,104.8381,-0.00060871,-7.354e-05,0.0,0 STARLINK-5917,1 55942U 23037AE  24024.53669280 -.00007354  00000-0 -60871-3 0  9997,2 55942  70.0005  78.7385 0002728 255.2476 104.8381 14.98360425 47870,6950.099,96.105,573.86,570.068,0.0
55942.0,STARLINK-5917,PAYLOAD,2024-01-25 11:18:43,14.98330011,0.0002685,70.0003,76.382,254.511,105.5753,7.106e-06,-8e-08,0.0,0 STARLINK-5917,1 55942U 23037AE  24025.47133851 -.00000008  00000-0  71060-5 0  9993,2 55942  70.0003  76.3820 0002685 254.5110 105.5753 14.98330011 48358,6950.193,96.107,573.924,570.192,0.0
55942.0,STARLINK-5917,PAYLOAD,2024-01-25 12:54:51,14.98330044,0.0002687,70.0002,76.2136,255.2589,104.8273,6.9275e-06,-1e-07,0.0,0 STARLINK-5917,1 55942U 23037AE  24025.53809849 -.00000010  00000-0  69275-5 0  9995,2 55942  70.0002  76.2136 0002687 255.2589 104.8273 14.98330044 48025,6950.193,96.107,573.925,570.19,0.0
55942.0,STARLINK-5917,PAYLOAD,2024-01-26 11:20:44,14.98332947,0.0002804,69.9999,73.8568,258.6929,101.3915,4.9841e-05,5.02e-06,0.0,0 STARLINK-5917,1 55942U 23037AE  24026.47273430  .00000502  00000-0  49841-4 0  9991,2 55942  69.9999  73.8568 0002804 258.6929 101.3915 14.98332947 48507,6950.184,96.107,573.998,570.1,0.0
55942.0,STARLINK-5917,PAYLOAD,2024-01-26 12:56:52,14.98332941,0.0002806,69.9999,73.6884,259.1417,100.9426,4.8563e-05,4.87e-06,0.0,0 STARLINK-5917,1 55942U 23037AE  24026.53949420  .00000487  00000-0  48563-4 0  9999,2 55942  69.9999  73.6884 0002806 259.1417 100.9426 14.98332941 48175,6950.184,96.107,573.999,570.099,0.0
55942.0,STARLINK-5917,PAYLOAD,2024-01-27 12:58:53,14.98329664,0.0002714,70.0,71.1635,258.2794,101.806,-1.3505e-05,-2.54e-06,0.0,0 STARLINK-5917,1 55942U 23037AE  24027.54089721 -.00000254  00000-0 -13505-4 0  9992,2 55942  70.0000  71.1635 0002714 258.2794 101.8060 14.98329664 48660,6950.194,96.107,573.945,570.173,0.0
55942.0,STARLINK-5917,PAYLOAD,2024-01-28 13:00:54,14.98331858,0.0002663,70.0,68.6375,265.4853,94.6002,-1.3525e-05,-2.54e-06,0.0,0 STARLINK-5917,1 55942U 23037AE  24028.54229487 -.00000254  00000-0 -13525-4 0  9990,2 55942  70.0000  68.6375 0002663 265.4853  94.6002 14.98331858 48473,6950.187,96.107,573.903,570.201,0.0
55942.0,STARLINK-5917,PAYLOAD,2024-01-29 11:26:46,14.98331542,0.0002722,69.9998,66.2807,267.9957,92.089,3.0278e-05,2.68e-06,0.0,0 STARLINK-5917,1 55942U 23037AE  24029.47693265  .00000268  00000-0  30278-4 0  9999,2 55942  69.9998  66.2807 0002722 267.9957  92.0890 14.98331542 48611,6950.188,96.107,573.945,570.161,0.0
55942.0,STARLINK-5917,PAYLOAD,2024-01-30 03:28:08,14.98325962,0.0002572,70.0001,64.5977,262.676,97.4107,-3.0032e-05,-4.51e-06,0.0,0 STARLINK-5917,1 55942U 23037AE  24030.14453777 -.00000451  00000-0 -30032-4 0  9991,2 55942  70.0001  64.5977 0002572 262.6760  97.4107 14.98325962 49053,6950.205,96.107,573.858,570.283,0.0
55942.0,STARLINK-5917,PAYLOAD,2024-01-30 11:28:48,14.98323676,0.0002652,70.0,63.756,263.8674,96.2183,-5.8678e-05,-7.93e-06,0.0,0 STARLINK-5917,1 55942U 23037AE  24030.47834086 -.00000793  00000-0 -58678-4 0  9998,2 55942  70.0000  63.7560 0002652 263.8674  96.2183 14.98323676 48765,6950.212,96.107,573.921,570.234,0.0
55942.0,STARLINK-5917,PAYLOAD,2024-01-31 03:30:08,14.98332438,0.0002825,69.9996,62.0722,265.7065,94.3771,-6.8364e-07,-1.01e-06,0.0,0 STARLINK-5917,1 55942U 23037AE  24031.14593380 -.00000101  00000-0 -68364-6 0  9990,2 55942  69.9996  62.0722 0002825 265.7065  94.3771 14.98332438 49203,6950.185,96.107,574.014,570.087,0.0
55942.0,STARLINK-5917,PAYLOAD,2024-01-31 11:30:48,14.98332353,0.0002839,69.9997,61.2307,266.5976,93.4859,1.0162e-06,-8.1e-07,0.0,0 STARLINK-5917,1 55942U 23037AE  24031.47973346 -.00000081  00000-0  10162-5 0  9998,2 55942  69.9997  61.2307 0002839 266.5976  93.4859 14.98332353 48919,6950.186,96.107,574.024,570.077,0.0
55942.0,STARLINK-5917,PAYLOAD,2024-02-01 03:32:09,14.98326493,0.000291,69.9996,59.5475,266.59,93.4926,3.7828e-05,3.58e-06,0.0,0 STARLINK-5917,1 55942U 23037AE  24032.14733607  .00000358  00000-0  37828-4 0  9990,2 55942  69.9996  59.5475 0002910 266.5900  93.4926 14.98326493 49353,6950.204,96.107,574.091,570.046,0.0
55942.0,STARLINK-5917,PAYLOAD,2024-02-01 11:32:50,14.98326756,0.0002966,69.9995,58.7055,268.8433,91.2386,3.4779e-05,3.22e-06,0.0,0 STARLINK-5917,1 55942U 23037AE  24032.48113662  .00000322  00000-0  34779-4 0  9993,2 55942  69.9995  58.7055 0002966 268.8433  91.2386 14.98326756 49060,6950.203,96.107,574.129,570.006,0.0
55942.0,STARLINK-5917,PAYLOAD,2024-02-02 03:34:10,14.98329687,0.0002917,69.9995,57.0218,270.3392,89.7433,-2.4091e-05,-3.8e-06,0.0,0 STARLINK-5917,1 55942U 23037AE  24033.14873708 -.00000380  00000-0 -24091-4 0  9993,2 55942  69.9995  57.0218 0002917 270.3392  89.7433 14.98329687 49501,6950.194,96.107,574.086,570.031,0.0
55942.0,STARLINK-5917,PAYLOAD,2024-02-02 11:34:51,14.98331474,0.0002893,69.9995,56.1801,270.226,89.8568,1.5221e-06,-7.5e-07,0.0,0 STARLINK-5917,1 55942U 23037AE  24033.48253512 -.00000075  00000-0  15221-5 0  9991,2 55942  69.9995  56.1801 0002893 270.2260  89.8568 14.98331474 49210,6950.188,96.107,574.064,570.043,0.0
55942.0,STARLINK-5917,PAYLOAD,2024-02-03 03:36:11,14.98330644,0.0002905,69.9994,54.4963,272.5375,87.5452,3.4822e-05,3.23e-06,0.0,0 STARLINK-5917,1 55942U 23037AE  24034.15013399  .00000323  00000-0  34822-4 0  9995,2 55942  69.9994  54.4963 0002905 272.5375  87.5452 14.98330644 49658,6950.191,96.107,574.075,570.037,0.0
55942.0,STARLINK-5917,PAYLOAD,2024-02-03 11:36:51,14.98332686,0.0002876,69.9994,53.6546,271.6594,88.4236,5.5377e-05,5.68e-06,0.0,0 STARLINK-5917,1 55942U 23037AE  24034.48393176  .00000568  00000-0  55377-4 0  9994,2 55942  69.9994  53.6546 0002876 271.6594  88.4236 14.98332686 49362,6950.185,96.107,574.048,570.051,0.0
55942.0,STARLINK-5917,PAYLOAD,2024-02-03 18:01:24,14.98331511,0.0002845,69.9995,52.981,273.0986,86.9847,2.5533e-05,2.12e-06,0.0,0 STARLINK-5917,1 55942U 23037AE  24034.75097303  .00000212  00000-0  25533-4 0  9994,2 55942  69.9995  52.9810 0002845 273.0986  86.9847 14.98331511 49408,6950.188,96.107,574.031,570.076,0.0
55942.0,STARLINK-5917,PAYLOAD,2024-02-04 03:38:12,14.98331096,0.0002838,69.9994,51.9715,269.7159,90.3674,1.1764e-05,4.7e-07,0.0,0 STARLINK-5917,1 55942U 23037AE  24035.15153294  .00000047  00000-0  11764-4 0  9998,2 55942  69.9994  51.9715 0002838 269.7159  90.3674 14.98331096 49805,6950.19,96.107,574.027,570.082,0.0
55942.0,STARLINK-5917,PAYLOAD,2024-02-04 10:02:44,14.98346737,0.0002688,69.9996,51.298,272.5595,87.5256,-0.00023483,-2.895e-05,0.0,0 STARLINK-5917,1 55942U 23037AE  24035.41856911 -.00002895  00000-0 -23483-3 0  9998,2 55942  69.9996  51.2980 0002688 272.5595  87.5256 14.98346737 49849,6950.141,96.106,573.874,570.138,0.0
55942.0,STARLINK-5917,PAYLOAD,2024-02-05 03:40:13,14.98331916,0.0002817,69.9996,49.4465,269.6454,90.4382,-2.1552e-05,-3.5e-06,0.0,0 STARLINK-5917,1 55942U 23037AE  24036.15293148 -.00000350  00000-0 -21552-4 0  9997,2 55942  69.9996  49.4465 0002817 269.6454  90.4382 14.98331916 49959,6950.187,96.107,574.01,570.094,0.0
55942.0,STARLINK-5917,PAYLOAD,2024-02-05 10:04:45,14.98332128,0.0002826,69.9997,48.7733,268.5919,91.4916,-1.8701e-05,-3.16e-06,0.0,0 STARLINK-5917,1 55942U 23037AE  24036.41997075 -.00000316  00000-0 -18701-4 0  9990,2 55942  69.9997  48.7733 0002826 268.5919  91.4916 14.98332128 49651,6950.186,96.107,574.015,570.087,0.0
55942.0,STARLINK-5917,PAYLOAD,2024-02-05 18:05:25,14.98329531,0.0002837,69.9997,47.9316,269.4644,90.619,-4.6267e-05,-6.45e-06,0.0,0 STARLINK-5917,1 55942U 23037AE  24036.75377278 -.00000645  00000-0 -46267-4 0  9997,2 55942  69.9997  47.9316 0002837 269.4644  90.6190 14.98329531 49701,6950.194,96.107,574.031,570.088,0.0
55942.0,STARLINK-5917,PAYLOAD,2024-02-06 03:42:14,14.98328282,0.0002873,69.9997,46.9218,269.513,90.57,-2.9518e-05,-4.45e-06,0.0,0 STARLINK-5917,1 55942U 23037AE  24037.15433303 -.00000445  00000-0 -29518-4 0  9992,2 55942  69.9997  46.9218 0002873 269.5130  90.5700 14.98328282 50106,6950.198,96.107,574.06,570.066,0.0
55942.0,STARLINK-5917,PAYLOAD,2024-02-06 10:06:46,14.98330534,0.0002874,69.9998,46.2483,269.3959,90.6871,-1.6248e-05,-2.87e-06,0.0,0 STARLINK-5917,1 55942U 23037AE  24037.42137126 -.00000287  00000-0 -16248-4 0  9996,2 55942  69.9998  46.2483 0002874 269.3959  90.6871 14.98330534 49800,6950.191,96.107,574.054,570.059,0.0
55942.0,STARLINK-5917,PAYLOAD,2024-02-07 03:44:15,14.98329414,0.0002889,69.9998,44.3966,269.3351,90.7477,-4.941e-06,-1.52e-06,0.0,0 STARLINK-5917,1 55942U 23037AE  24038.15573122 -.00000152  00000-0 -49410-5 0  9996,2 55942  69.9998  44.3966 0002889 269.3351  90.7477 14.98329414 50256,6950.195,96.107,574.068,570.052,0.0
55942.0,STARLINK-5917,PAYLOAD,2024-02-07 10:08:47,14.98331725,0.0002872,69.9999,43.7234,269.5592,90.5237,2.1845e-05,1.68e-06,0.0,0 STARLINK-5917,1 55942U 23037AE  24038.42276895  .00000168  00000-0  21845-4 0  9999,2 55942  69.9999  43.7234 0002872 269.5592  90.5237 14.98331725 49954,6950.188,96.107,574.049,570.056,0.0
55942.0,STARLINK-5917,PAYLOAD,2024-02-08 10:10:48,14.98328971,0.0002836,70.0002,41.1994,266.3059,93.7776,1.087e-05,3.7e-07,0.0,0 STARLINK-5917,1 55942U 23037AE  24039.42417116  .00000037  00000-0  10870-4 0  9994,2 55942  70.0002  41.1994 0002836 266.3059  93.7776 14.98328971 50448,6950.196,96.107,574.032,570.09,0.0
55942.0,STARLINK-5917,PAYLOAD,2024-02-08 22:59:52,14.98330597,0.0002794,70.0004,39.8529,266.1868,93.8971,1.8533e-06,-7.1e-07,0.0,0 STARLINK-5917,1 55942U 23037AE  24039.95825041 -.00000071  00000-0  18533-5 0  9996,2 55942  70.0004  39.8529 0002794 266.1868  93.8971 14.98330597 50183,6950.191,96.107,573.998,570.114,0.0
